{"type": "FeatureCollection", "features": [ {"type": "Feature", "properties": {"norad_id": 44543, "name": "BEIDOU-3 M23 (C45)", "group": "beidou", "lat": -50.559605660684106, "lon": 127.95430157910381, "alt_km": 21536.29197967319, "timestamp": "2025-12-25T07:00:34.311463+00:00", "meta": {"OBJECT_NAME": "BEIDOU-3 M23 (C45)", "OBJECT_ID": "2019-061B", "EPOCH": "2025-12-24T07:52:57.624672", "MEAN_MOTION": 1.86227549, "ECCENTRICITY": 0.00060312, "INCLINATION": 54.3996, "RA_OF_ASC_NODE": 188.5933, "ARG_OF_PERICENTER": 26.11, "MEAN_ANOMALY": 336.0921, "EPHEMERIS_TYPE": 0, "CLASSIFICATION_TYPE": "U", "NORAD_CAT_ID": 44543, "ELEMENT_SET_NO": 999, "REV_AT_EPOCH": 4254, "BSTAR": 0, "MEAN_MOTION_DOT": 1.03e-06, "MEAN_MOTION_DDOT": 0}, "tle": {"line1": "1 44543U 19061B   25358.32844473  .00000103  00000+0  00000+0 0  9997", "line2": "2 44543  54.3996 188.5933 0006031  26.1100 336.0921  1.86227549 42548"}}, "geometry": {"type": "Point", "coordinates": [127.95430157910381, -50.559605660684106]}}, {"type": "Feature", "properties": {"norad_id": 44793, "name": "BEIDOU-3 M22 (C44)", "group": "beidou", "lat": 42.85677095409773, "lon": 83.75175174198573, "alt_km": 21525.353052250535, "timestamp": "2025-12-25T07:00:34.311475+00:00", "meta": {"OBJECT_NAME": "BEIDOU-3 M22 (C44)", "OBJECT_ID": "2019-078A", "EPOCH": "2025-12-22T23:04:03.320256", "MEAN_MOTION": 1.86232206, "ECCENTRICITY": 0.00060944, "INCLINATION": 54.0989, "RA_OF_ASC_NODE": 306.0279, "ARG_OF_PERICENTER": 24.0205, "MEAN_ANOMALY": 336.0117, "EPHEMERIS_TYPE": 0, "CLASSIFICATION_TYPE": "U", "NORAD_CAT_ID": 44793, "ELEMENT_SET_NO": 999, "REV_AT_EPOCH": 4136, "BSTAR": 0, "MEAN_MOTION_DOT": -5.4e-07, "MEAN_MOTION_DDOT": 0}, "tle": {"line1": "1 44793U 19078A   25356.96114954 -.00000054  00000+0  00000+0 0  9990", "line2": "2 44793  54.0989 306.0279 0006094  24.0205 336.0117  1.86232206 41368"}}, "geometry": {"type": "Point", "coordinates": [83.75175174198573, 42.85677095409773]}}, {"type": "Feature", "properties": {"norad_id": 44794, "name": "BEIDOU-3 M21 (C43)", "group": "beidou", "lat": 24.119564870648563, "lon": -35.18182468789419, "alt_km": 21514.08002422698, "timestamp": "2025-12-25T07:00:34.311487+00:00", "meta": {"OBJECT_NAME": "BEIDOU-3 M21 (C43)", "OBJECT_ID": "2019-078B", "EPOCH": "2025-12-24T04:09:05.806368", "MEAN_MOTION": 1.86227908, "ECCENTRICITY": 0.00042661, "INCLINATION": 54.0712, "RA_OF_ASC_NODE": 305.9502, "ARG_OF_PERICENTER": 12.8462, "MEAN_ANOMALY": 347.1724, "EPHEMERIS_TYPE": 0, "CLASSIFICATION_TYPE": "U", "NORAD_CAT_ID": 44794, "ELEMENT_SET_NO": 999, "REV_AT_EPOCH": 4139, "BSTAR": 0, "MEAN_MOTION_DOT": -5.2e-07, "MEAN_MOTION_DDOT": 0}, "tle": {"line1": "1 44794U 19078B   25358.17298387 -.00000052  00000+0  00000+0 0  9997", "line2": "2 44794  54.0712 305.9502 0004266  12.8462 347.1724  1.86227908 41392"}}, "geometry": {"type": "Point", "coordinates": [-35.18182468789419, 24.119564870648563]}}, {"type": "Feature", "properties": {"norad_id": 44864, "name": "BEIDOU-3 M19 (C41)", "group": "beidou", "lat": -36.79931556323538, "lon": -81.65703187368347, "alt_km": 21506.168738634482, "timestamp": "2025-12-25T07:00:34.311498+00:00", "meta": {"OBJECT_NAME": "BEIDOU-3 M19 (C41)", "OBJECT_ID": "2019-090A", "EPOCH": "2025-12-24T13:05:33.212256", "MEAN_MOTION": 1.86231537, "ECCENTRICITY": 0.00184016, "INCLINATION": 56.4026, "RA_OF_ASC_NODE": 68.5704, "ARG_OF_PERICENTER": 285.2046, "MEAN_ANOMALY": 160.4424, "EPHEMERIS_TYPE": 0, "CLASSIFICATION_TYPE": "U", "NORAD_CAT_ID": 44864, "ELEMENT_SET_NO": 999, "REV_AT_EPOCH": 4098, "BSTAR": 0, "MEAN_MOTION_DOT": -2.5e-07, "MEAN_MOTION_DDOT": 0}, "tle": {"line1": "1 44864U 19090A   25358.54552329 -.00000025  00000+0  00000+0 0  9999", "line2": "2 44864  56.4026  68.5704 0018401 285.2046 160.4424  1.86231537 40980"}}, "geometry": {"type": "Point", "coordinates": [-81.65703187368347, -36.79931556323538]}}, {"type": "Feature", "properties": {"norad_id": 44865, "name": "BEIDOU-3 M20 (C42)", "group": "beidou", "lat": -35.516897573539225, "lon": 40.313315147925955, "alt_km": 21491.342212829255, "timestamp": "2025-12-25T07:00:34.311510+00:00", "meta": {"OBJECT_NAME": "BEIDOU-3 M20 (C42)", "OBJECT_ID": "2019-090B", "EPOCH": "2025-12-24T09:14:17.322144", "MEAN_MOTION": 1.86231611, "ECCENTRICITY": 0.00155264, "INCLINATION": 56.4041, "RA_OF_ASC_NODE": 68.61, "ARG_OF_PERICENTER": 297.3537, "MEAN_ANOMALY": 130.233, "EPHEMERIS_TYPE": 0, "CLASSIFICATION_TYPE": "U", "NORAD_CAT_ID": 44865, "ELEMENT_SET_NO": 999, "REV_AT_EPOCH": 4096, "BSTAR": 0, "MEAN_MOTION_DOT": -2.4e-07, "MEAN_MOTION_DDOT": 0}, "tle": {"line1": "1 44865U 19090B   25358.38492271 -.00000024  00000+0  00000+0 0  9990", "line2": "2 44865  56.4041  68.6100 0015526 297.3537 130.2330  1.86231611 40965"}}, "geometry": {"type": "Point", "coordinates": [40.313315147925955, -35.516897573539225]}}, {"type": "Feature", "properties": {"norad_id": 45344, "name": "BEIDOU-3 G2 (C60)", "group": "beidou", "lat": -2.085607184917617, "lon": -80.78901660708084, "alt_km": 35777.26106995961, "timestamp": "2025-12-25T07:00:34.311522+00:00", "meta": {"OBJECT_NAME": "BEIDOU-3 G2 (C60)", "OBJECT_ID": "2020-017A", "EPOCH": "2025-12-24T22:45:15.683616", "MEAN_MOTION": 1.00272341, "ECCENTRICITY": 0.00021155, "INCLINATION": 2.5185, "RA_OF_ASC_NODE": 44.1137, "ARG_OF_PERICENTER": 237.1271, "MEAN_ANOMALY": 233.8352, "EPHEMERIS_TYPE": 0, "CLASSIFICATION_TYPE": "U", "NORAD_CAT_ID": 45344, "ELEMENT_SET_NO": 999, "REV_AT_EPOCH": 2151, "BSTAR": 0, "MEAN_MOTION_DOT": -1.2e-06, "MEAN_MOTION_DDOT": 0}, "tle": {"line1": "1 45344U 20017A   25358.94809819 -.00000120  00000+0  00000+0 0  9993", "line2": "2 45344   2.5185  44.1137 0002115 237.1271 233.8352  1.00272341 21510"}}, "geometry": {"type": "Point", "coordinates": [-80.78901660708084, -2.085607184917617]}}, {"type": "Feature", "properties": {"norad_id": 45807, "name": "BEIDOU-3 G3 (C61)", "group": "beidou", "lat": -1.817374104165161, "lon": -50.361796534227686, "alt_km": 35776.258011632024, "timestamp": "2025-12-25T07:00:34.311534+00:00", "meta": {"OBJECT_NAME": "BEIDOU-3 G3 (C61)", "OBJECT_ID": "2020-040A", "EPOCH": "2025-12-24T22:11:03.869376", "MEAN_MOTION": 1.00267778, "ECCENTRICITY": 0.00065864, "INCLINATION": 2.0187, "RA_OF_ASC_NODE": 66.6838, "ARG_OF_PERICENTER": 308.9241, "MEAN_ANOMALY": 161.3844, "EPHEMERIS_TYPE": 0, "CLASSIFICATION_TYPE": "U", "NORAD_CAT_ID": 45807, "ELEMENT_SET_NO": 999, "REV_AT_EPOCH": 2032, "BSTAR": 0, "MEAN_MOTION_DOT": -3.33e-06, "MEAN_MOTION_DDOT": 0}, "tle": {"line1": "1 45807U 20040A   25358.92435034 -.00000333  00000+0  00000+0 0  9991", "line2": "2 45807   2.0187  66.6838 0006586 308.9241 161.3844  1.00267778 20325"}}, "geometry": {"type": "Point", "coordinates": [-50.361796534227686, -1.817374104165161]}}, {"type": "Feature", "properties": {"norad_id": 56564, "name": "BEIDOU-3 G4 (C62)", "group": "beidou", "lat": 0.6519705255960863, "lon": -0.7635484884931161, "alt_km": 35796.98138025236, "timestamp": "2025-12-25T07:00:34.311546+00:00", "meta": {"OBJECT_NAME": "BEIDOU-3 G4 (C62)", "OBJECT_ID": "2023-066A", "EPOCH": "2025-12-24T22:25:17.507424", "MEAN_MOTION": 1.00270898, "ECCENTRICITY": 0.00025764, "INCLINATION": 0.7896, "RA_OF_ASC_NODE": 302.9846, "ARG_OF_PERICENTER": 228.9181, "MEAN_ANOMALY": 58.1769, "EPHEMERIS_TYPE": 0, "CLASSIFICATION_TYPE": "U", "NORAD_CAT_ID": 56564, "ELEMENT_SET_NO": 999, "REV_AT_EPOCH": 964, "BSTAR": 0, "MEAN_MOTION_DOT": -9e-07, "MEAN_MOTION_DDOT": 0}, "tle": {"line1": "1 56564U 23066A   25358.93423041 -.00000090  00000+0  00000+0 0  9990", "line2": "2 56564   0.7896 302.9846 0002576 228.9181  58.1769  1.00270898  9641"}}, "geometry": {"type": "Point", "coordinates": [-0.7635484884931161, 0.6519705255960863]}}, {"type": "Feature", "properties": {"norad_id": 58654, "name": "BEIDOU-3 M28 (C50)", "group": "beidou", "lat": -18.10444839212618, "lon": 55.26323116000389, "alt_km": 21527.06200557567, "timestamp": "2025-12-25T07:00:34.311561+00:00", "meta": {"OBJECT_NAME": "BEIDOU-3 M28 (C50)", "OBJECT_ID": "2023-207A", "EPOCH": "2025-12-23T17:08:25.533024", "MEAN_MOTION": 1.86229696, "ECCENTRICITY": 0.00028713, "INCLINATION": 55.5937, "RA_OF_ASC_NODE": 68.2298, "ARG_OF_PERICENTER": 275.1516, "MEAN_ANOMALY": 84.8693, "EPHEMERIS_TYPE": 0, "CLASSIFICATION_TYPE": "U", "NORAD_CAT_ID": 58654, "ELEMENT_SET_NO": 999, "REV_AT_EPOCH": 1357, "BSTAR": 0, "MEAN_MOTION_DOT": -2.6e-07, "MEAN_MOTION_DDOT": 0}, "tle": {"line1": "1 58654U 23207A   25357.71418441 -.00000026  00000+0  00000+0 0  9991", "line2": "2 58654  55.5937  68.2298 0002871 275.1516  84.8693  1.86229696 13577"}}, "geometry": {"type": "Point", "coordinates": [55.26323116000389, -18.10444839212618]}}, {"type": "Feature", "properties": {"norad_id": 58655, "name": "BEIDOU-3 M26 (C48)", "group": "beidou", "lat": 49.14088148698387, "lon": -164.12054478892182, "alt_km": 21532.002677613436, "timestamp": "2025-12-25T07:00:34.311572+00:00", "meta": {"OBJECT_NAME": "BEIDOU-3 M26 (C48)", "OBJECT_ID": "2023-207B", "EPOCH": "2025-12-22T23:23:41.171712", "MEAN_MOTION": 1.86231234, "ECCENTRICITY": 0.00041871, "INCLINATION": 55.5951, "RA_OF_ASC_NODE": 68.241, "ARG_OF_PERICENTER": 260.4893, "MEAN_ANOMALY": 99.5155, "EPHEMERIS_TYPE": 0, "CLASSIFICATION_TYPE": "U", "NORAD_CAT_ID": 58655, "ELEMENT_SET_NO": 999, "REV_AT_EPOCH": 1354, "BSTAR": 0, "MEAN_MOTION_DOT": -2.8e-07, "MEAN_MOTION_DDOT": 0}, "tle": {"line1": "1 58655U 23207B   25356.97478208 -.00000028  00000+0  00000+0 0  9998", "line2": "2 58655  55.5951  68.2410 0004187 260.4893  99.5155  1.86231234 13541"}}, "geometry": {"type": "Point", "coordinates": [-164.12054478892182, 49.14088148698387]}}]}